{
  "norad_id": 67710,
  "name": "STARLINK-36344",
  "history": [
    {
      "epoch": "2026-04-11T20:17:32.166816Z",
      "apogee_km": 466.39032693226545,
      "perigee_km": 464.6985688783425,
      "latitude_deg": -3.445242884831045e-06,
      "longitude_deg": 69.61861961356671,
      "height_km": 468.76900777202354,
      "semi_major_axis_km": 6843.681447905304,
      "eccentricity": 0.0001236,
      "inclination_deg": 97.2854,
      "raan_deg": 214.0618,
      "arg_perigee_deg": 97.7774,
      "mean_anomaly_deg": 262.3609,
      "mean_motion_rev_day": 15.33444572
    },
    {
      "epoch": "2026-04-13T06:44:49.411680Z",
      "apogee_km": 466.66745195277053,
      "perigee_km": 464.367983967536,
      "latitude_deg": -3.198984426542302e-06,
      "longitude_deg": -87.20524255754283,
      "height_km": 468.80063394857785,
      "semi_major_axis_km": 6843.654717960153,
      "eccentricity": 0.000168,
      "inclination_deg": 97.2855,
      "raan_deg": 215.4748,
      "arg_perigee_deg": 98.6811,
      "mean_anomaly_deg": 261.4622,
      "mean_motion_rev_day": 15.33453556
    },
    {
      "epoch": "2026-04-14T20:20:02.976288Z",
      "apogee_km": 466.37968309738153,
      "perigee_km": 464.69203337054114,
      "latitude_deg": 4.042468146887525e-06,
      "longitude_deg": 68.99119162509602,
      "height_km": 468.64242860315795,
      "semi_major_axis_km": 6843.672858233961,
      "eccentricity": 0.0001233,
      "inclination_deg": 97.286,
      "raan_deg": 217.0214,
      "arg_perigee_deg": 89.7646,
      "mean_anomaly_deg": 270.3738,
      "mean_motion_rev_day": 15.33447459
    },
    {
      "epoch": "2026-04-15T18:15:35.634240Z",
      "apogee_km": 466.1354677944855,
      "perigee_km": 464.8830805263142,
      "latitude_deg": -3.374488361538251e-05,
      "longitude_deg": 100.10386530692176,
      "height_km": 468.04633789094794,
      "semi_major_axis_km": 6843.6462741604,
      "eccentricity": 9.15e-05,
      "inclination_deg": 97.286,
      "raan_deg": 217.9206,
      "arg_perigee_deg": 23.5027,
      "mean_anomaly_deg": 336.6257,
      "mean_motion_rev_day": 15.33456394
    },
    {
      "epoch": "2026-04-16T17:45:06.611040Z",
      "apogee_km": 466.2968385010827,
      "perigee_km": 464.7501712269823,
      "latitude_deg": -2.799524474616098e-05,
      "longitude_deg": 107.72551684165309,
      "height_km": 468.31137377722774,
      "semi_major_axis_km": 6843.660504864032,
      "eccentricity": 0.000113,
      "inclination_deg": 97.2864,
      "raan_deg": 218.8861,
      "arg_perigee_deg": 65.3585,
      "mean_anomaly_deg": 294.7775,
      "mean_motion_rev_day": 15.33451611
    },
    {
      "epoch": "2026-04-17T18:48:35.535168Z",
      "apogee_km": 466.12309858685785,
      "perigee_km": 464.8822098447563,
      "latitude_deg": 1.652044596473519e-05,
      "longitude_deg": 91.8539984721926,
      "height_km": 468.0923367519039,
      "semi_major_axis_km": 6843.639654215807,
      "eccentricity": 9.066e-05,
      "inclination_deg": 97.2853,
      "raan_deg": 219.9142,
      "arg_perigee_deg": 32.8111,
      "mean_anomaly_deg": 327.3188,
      "mean_motion_rev_day": 15.33458619
    },
    {
      "epoch": "2026-04-18T05:46:21.277056Z",
      "apogee_km": 466.5924329878517,
      "perigee_km": 464.26917858914294,
      "latitude_deg": 5.8120763722126724e-05,
      "longitude_deg": -72.58212011239276,
      "height_km": 469.1875582715769,
      "semi_major_axis_km": 6843.567805788497,
      "eccentricity": 0.00016974,
      "inclination_deg": 97.2885,
      "raan_deg": 220.3689,
      "arg_perigee_deg": 123.8408,
      "mean_anomaly_deg": 236.2997,
      "mean_motion_rev_day": 15.33482768
    },
    {
      "epoch": "2026-04-19T19:21:36.366624Z",
      "apogee_km": 466.4333080074275,
      "perigee_km": 464.8441832792887,
      "latitude_deg": 2.6049084152668877e-05,
      "longitude_deg": 83.60524495189723,
      "height_km": 468.84504271634444,
      "semi_major_axis_km": 6843.775745643357,
      "eccentricity": 0.0001161,
      "inclination_deg": 97.2866,
      "raan_deg": 221.9128,
      "arg_perigee_deg": 96.952,
      "mean_anomaly_deg": 263.1855,
      "mean_motion_rev_day": 15.33412879
    },
    {
      "epoch": "2026-04-20T14:09:12.793824Z",
      "apogee_km": 466.1839439162568,
      "perigee_km": 464.7515774398471,
      "latitude_deg": 5.203250263344666e-05,
      "longitude_deg": 161.7024404526086,
      "height_km": 468.4814675182101,
      "semi_major_axis_km": 6843.604760678052,
      "eccentricity": 0.00010465,
      "inclination_deg": 97.2864,
      "raan_deg": 222.6836,
      "arg_perigee_deg": 82.2447,
      "mean_anomaly_deg": 277.8915,
      "mean_motion_rev_day": 15.33470347
    },
    {
      "epoch": "2026-04-21T18:20:37.201344Z",
      "apogee_km": 465.5871046731263,
      "perigee_km": 465.50771793395506,
      "latitude_deg": 3.186261215382806e-05,
      "longitude_deg": 98.85121529767386,
      "height_km": 468.6424319047646,
      "semi_major_axis_km": 6843.68441130354,
      "eccentricity": 5.8e-06,
      "inclination_deg": 97.2864,
      "raan_deg": 223.8418,
      "arg_perigee_deg": 64.8844,
      "mean_anomaly_deg": 295.2405,
      "mean_motion_rev_day": 15.33443576
    },
    {
      "epoch": "2026-04-22T19:24:06.844320Z",
      "apogee_km": 465.9889033930276,
      "perigee_km": 465.0910129761123,
      "latitude_deg": 1.6362047638310767e-05,
      "longitude_deg": 82.97779717809586,
      "height_km": 468.7249058993501,
      "semi_major_axis_km": 6843.676958184569,
      "eccentricity": 6.56e-05,
      "inclination_deg": 97.2856,
      "raan_deg": 224.871,
      "arg_perigee_deg": 99.4798,
      "mean_anomaly_deg": 260.6519,
      "mean_motion_rev_day": 15.33446081
    },
    {
      "epoch": "2026-04-23T14:11:43.217088Z",
      "apogee_km": 465.8412003813246,
      "perigee_km": 465.1494460260956,
      "latitude_deg": 3.6818064811003615e-05,
      "longitude_deg": 161.07632083325862,
      "height_km": 468.44266994205225,
      "semi_major_axis_km": 6843.63232320371,
      "eccentricity": 5.054e-05,
      "inclination_deg": 97.2864,
      "raan_deg": 225.6429,
      "arg_perigee_deg": 61.7113,
      "mean_anomaly_deg": 298.4181,
      "mean_motion_rev_day": 15.33461083
    },
    {
      "epoch": "2026-04-24T19:57:06.353856Z",
      "apogee_km": 466.1630567905304,
      "perigee_km": 464.8778179237943,
      "latitude_deg": 3.883165585276312e-05,
      "longitude_deg": 74.73106287391272,
      "height_km": 468.3185789039859,
      "semi_major_axis_km": 6843.657437357162,
      "eccentricity": 9.39e-05,
      "inclination_deg": 97.2857,
      "raan_deg": 226.8661,
      "arg_perigee_deg": 60.9022,
      "mean_anomaly_deg": 299.2315,
      "mean_motion_rev_day": 15.33452642
    },
    {
      "epoch": "2026-04-25T19:26:37.068000Z",
      "apogee_km": 465.84587977065075,
      "perigee_km": 465.2135249673511,
      "latitude_deg": 1.6891589765342663e-05,
      "longitude_deg": 82.35051324977337,
      "height_km": 468.945346311037,
      "semi_major_axis_km": 6843.666702369001,
      "eccentricity": 4.62e-05,
      "inclination_deg": 97.2839,
      "raan_deg": 227.8283,
      "arg_perigee_deg": 196.3744,
      "mean_anomaly_deg": 163.7484,
      "mean_motion_rev_day": 15.33449528
    },
    {
      "epoch": "2026-04-26T20:30:06.097536Z",
      "apogee_km": 465.93090953478986,
      "perigee_km": 464.9630898855512,
      "latitude_deg": 1.8123855493988217e-05,
      "longitude_deg": 66.48275904471792,
      "height_km": 468.68696625692155,
      "semi_major_axis_km": 6843.58399971017,
      "eccentricity": 7.071e-05,
      "inclination_deg": 97.2859,
      "raan_deg": 228.8606,
      "arg_perigee_deg": 105.4569,
      "mean_anomaly_deg": 254.6752,
      "mean_motion_rev_day": 15.33477325
    },
    {
      "epoch": "2026-04-27T19:59:37.235904Z",
      "apogee_km": 466.0130557065413,
      "perigee_km": 465.03304358743117,
      "latitude_deg": 2.5323689323588252e-05,
      "longitude_deg": 74.10323423995655,
      "height_km": 468.55941474088775,
      "semi_major_axis_km": 6843.6600496469855,
      "eccentricity": 7.16e-05,
      "inclination_deg": 97.2861,
      "raan_deg": 229.8256,
      "arg_perigee_deg": 81.2543,
      "mean_anomaly_deg": 278.8781,
      "mean_motion_rev_day": 15.33451764
    }
  ]
}